[{"OBJECT_NAME":"IRS-P5 (CARTOSAT-1)","OBJECT_ID":"2005-017A","EPOCH":"2026-03-09T22:48:10.240128","MEAN_MOTION":14.90766826,"ECCENTRICITY":0.00023337,"INCLINATION":97.5413,"RA_OF_ASC_NODE":96.4857,"ARG_OF_PERICENTER":69.4592,"MEAN_ANOMALY":290.6877,"EPHEMERIS_TYPE":0,"CLASSIFICATION_TYPE":"U","NORAD_CAT_ID":28649,"ELEMENT_SET_NO":999,"REV_AT_EPOCH":12903,"BSTAR":0.00024911851,"MEAN_MOTION_DOT":2.396e-5,"MEAN_MOTION_DDOT":0},{"OBJECT_NAME":"PSLV DEB","OBJECT_ID":"2001-049CS","EPOCH":"2026-03-09T17:28:51.612960","MEAN_MOTION":14.96014952,"ECCENTRICITY":0.00345383,"INCLINATION":98.0485,"RA_OF_ASC_NODE":147.0031,"ARG_OF_PERICENTER":251.2293,"MEAN_ANOMALY":231.4093,"EPHEMERIS_TYPE":0,"CLASSIFICATION_TYPE":"U","NORAD_CAT_ID":27146,"ELEMENT_SET_NO":999,"REV_AT_EPOCH":30162,"BSTAR":0.00055338741,"MEAN_MOTION_DOT":6.222e-5,"MEAN_MOTION_DDOT":0}]
